start=new Date('2021-09-13T00:00:00.000Z').valueOf();
sats=[{"CLASSIFICATION_TYPE":"U","TIME_SYSTEM":"UTC","TLE_LINE2":"2 45680  53.0540 213.5199 0001628  57.1203 302.9942 15.06399009 71859","ELEMENT_SET_NO":"999","REF_FRAME":"TEME","COUNTRY_CODE":"US","MEAN_MOTION_DOT":"0.00000406","MEAN_MOTION":"15.06399009","BSTAR":"0.00004614600000","APOAPSIS":"548.344","SEMIMAJOR_AXIS":"6925.352","NORAD_CAT_ID":"45680","CENTER_NAME":"EARTH","RA_OF_ASC_NODE":"213.5199","OBJECT_TYPE":"PAYLOAD","EPOCH":"2021-09-12T21:10:01.742304","ECCENTRICITY":"0.00016280","GP_ID":"184598090","FILE":"3114195","RCS_SIZE":"LARGE","TLE_LINE1":"1 45680U 20035Z   21255.88196461  .00000406  00000-0  46146-4 0  9996","MEAN_ELEMENT_THEORY":"SGP4","OBJECT_NAME":"STARLINK-1395","REV_AT_EPOCH":"7185","PERIOD":"95.592","SITE":"AFETR","INCLINATION":"53.0540","EPHEMERIS_TYPE":"0","PERIAPSIS":"546.089","DECAY_DATE":null,"MEAN_ANOMALY":"302.9942","ARG_OF_PERICENTER":"57.1203","LAUNCH_DATE":"2020-06-04","MEAN_MOTION_DDOT":"0.0000000000000","OBJECT_ID":"2020-035Z"},{"REV_AT_EPOCH":"7186","OBJECT_NAME":"STARLINK-1396","PERIOD":"95.593","SITE":"AFETR","FILE":"3114195","TLE_LINE1":"1 45681U 20035AA  21255.87828622 -.00000693  00000-0 -27625-4 0  9998","MEAN_ELEMENT_THEORY":"SGP4","RCS_SIZE":"LARGE","MEAN_ANOMALY":"296.9384","LAUNCH_DATE":"2020-06-04","ARG_OF_PERICENTER":"63.1734","OBJECT_ID":"2020-035AA","MEAN_MOTION_DDOT":"0.0000000000000","INCLINATION":"53.0527","DECAY_DATE":null,"PERIAPSIS":"546.357","EPHEMERIS_TYPE":"0","COUNTRY_CODE":"US","MEAN_MOTION_DOT":"-0.00000693","BSTAR":"-0.00002762500000","MEAN_MOTION":"15.06393500","CLASSIFICATION_TYPE":"U","TIME_SYSTEM":"UTC","TLE_LINE2":"2 45681  53.0527 213.5363 0001265  63.1734 296.9384 15.06393500 71864","REF_FRAME":"TEME","ELEMENT_SET_NO":"999","ECCENTRICITY":"0.00012650","RA_OF_ASC_NODE":"213.5363","OBJECT_TYPE":"PAYLOAD","EPOCH":"2021-09-12T21:04:43.929408","GP_ID":"184598341","APOAPSIS":"548.110","CENTER_NAME":"EARTH","SEMIMAJOR_AXIS":"6925.368","NORAD_CAT_ID":"45681"},{"INCLINATION":"53.0547","DECAY_DATE":null,"EPHEMERIS_TYPE":"0","PERIAPSIS":"546.245","ARG_OF_PERICENTER":"56.7282","LAUNCH_DATE":"2020-06-04","MEAN_ANOMALY":"303.3837","OBJECT_ID":"2020-035AB","MEAN_MOTION_DDOT":"0.0000000000000","FILE":"3114195","TLE_LINE1":"1 45682U 20035AB  21255.88565054 -.00000476  00000-0 -13042-4 0  9994","MEAN_ELEMENT_THEORY":"SGP4","RCS_SIZE":"LARGE","REV_AT_EPOCH":"7185","OBJECT_NAME":"STARLINK-1397","PERIOD":"95.592","SITE":"AFETR","APOAPSIS":"548.139","CENTER_NAME":"EARTH","NORAD_CAT_ID":"45682","SEMIMAJOR_AXIS":"6925.327","ECCENTRICITY":"0.00013680","EPOCH":"2021-09-12T21:15:20.206656","RA_OF_ASC_NODE":"213.5041","OBJECT_TYPE":"PAYLOAD","GP_ID":"184599079","TLE_LINE2":"2 45682  53.0547 213.5041 0001368  56.7282 303.3837 15.06407032 71851","TIME_SYSTEM":"UTC","CLASSIFICATION_TYPE":"U","REF_FRAME":"TEME","ELEMENT_SET_NO":"999","MEAN_MOTION_DOT":"-0.00000476","COUNTRY_CODE":"US","BSTAR":"-0.00001304200000","MEAN_MOTION":"15.06407032"},{"TLE_LINE2":"2 45683  53.0543 213.5830 0001469  52.8389 307.2734 15.06397833 71868","TIME_SYSTEM":"UTC","CLASSIFICATION_TYPE":"U","REF_FRAME":"TEME","ELEMENT_SET_NO":"999","COUNTRY_CODE":"US","MEAN_MOTION_DOT":"0.00000369","BSTAR":"0.00004366700000","MEAN_MOTION":"15.06397833","APOAPSIS":"548.238","CENTER_NAME":"EARTH","NORAD_CAT_ID":"45683","SEMIMAJOR_AXIS":"6925.355","ECCENTRICITY":"0.00014690","EPOCH":"2021-09-12T20:48:48.589056","RA_OF_ASC_NODE":"213.5830","OBJECT_TYPE":"PAYLOAD","GP_ID":"184597340","FILE":"3114195","TLE_LINE1":"1 45683U 20035AC  21255.86722904  .00000369  00000-0  43667-4 0  9997","MEAN_ELEMENT_THEORY":"SGP4","RCS_SIZE":"LARGE","REV_AT_EPOCH":"7186","OBJECT_NAME":"STARLINK-1399","SITE":"AFETR","PERIOD":"95.592","INCLINATION":"53.0543","DECAY_DATE":null,"EPHEMERIS_TYPE":"0","PERIAPSIS":"546.203","ARG_OF_PERICENTER":"52.8389","LAUNCH_DATE":"2020-06-04","MEAN_ANOMALY":"307.2734","OBJECT_ID":"2020-035AC","MEAN_MOTION_DDOT":"0.0000000000000"},{"RCS_SIZE":"LARGE","MEAN_ELEMENT_THEORY":"SGP4","TLE_LINE1":"1 45684U 20035AD  21255.91145601  .00001183  00000-0  98312-4 0  9999","FILE":"3114195","SITE":"AFETR","PERIOD":"95.592","OBJECT_NAME":"STARLINK-1401","REV_AT_EPOCH":"7187","EPHEMERIS_TYPE":"0","PERIAPSIS":"546.050","DECAY_DATE":null,"INCLINATION":"53.0537","MEAN_MOTION_DDOT":"0.0000000000000","OBJECT_ID":"2020-035AD","ARG_OF_PERICENTER":"64.7265","LAUNCH_DATE":"2020-06-04","MEAN_ANOMALY":"295.3899","ELEMENT_SET_NO":"999","REF_FRAME":"TEME","TIME_SYSTEM":"UTC","TLE_LINE2":"2 45684  53.0537 213.3863 0001688  64.7265 295.3899 15.06398315 71870","CLASSIFICATION_TYPE":"U","MEAN_MOTION":"15.06398315","BSTAR":"0.00009831200000","MEAN_MOTION_DOT":"0.00001183","COUNTRY_CODE":"US","NORAD_CAT_ID":"45684","SEMIMAJOR_AXIS":"6925.354","CENTER_NAME":"EARTH","APOAPSIS":"548.388","GP_ID":"184597590","EPOCH":"2021-09-12T21:52:29.799264","RA_OF_ASC_NODE":"213.3863","OBJECT_TYPE":"PAYLOAD","ECCENTRICITY":"0.00016880"},{"PERIOD":"95.592","SITE":"AFETR","OBJECT_NAME":"STARLINK-1402","REV_AT_EPOCH":"7187","RCS_SIZE":"LARGE","TLE_LINE1":"1 45685U 20035AE  21255.90776786  .00001045  00000-0  89022-4 0  9998","MEAN_ELEMENT_THEORY":"SGP4","FILE":"3114195","MEAN_MOTION_DDOT":"0.0000000000000","OBJECT_ID":"2020-035AE","MEAN_ANOMALY":"302.7600","ARG_OF_PERICENTER":"57.3525","LAUNCH_DATE":"2020-06-04","EPHEMERIS_TYPE":"0","PERIAPSIS":"546.227","DECAY_DATE":null,"INCLINATION":"53.0544","MEAN_MOTION":"15.06402865","BSTAR":"0.00008902200000","COUNTRY_CODE":"US","MEAN_MOTION_DOT":"0.00001045","ELEMENT_SET_NO":"999","REF_FRAME":"TEME","CLASSIFICATION_TYPE":"U","TLE_LINE2":"2 45685  53.0544 213.4058 0001412  57.3525 302.7600 15.06402865 71877","TIME_SYSTEM":"UTC","GP_ID":"184598842","RA_OF_ASC_NODE":"213.4058","OBJECT_TYPE":"PAYLOAD","EPOCH":"2021-09-12T21:47:11.143104","ECCENTRICITY":"0.00014120","SEMIMAJOR_AXIS":"6925.340","NORAD_CAT_ID":"45685","CENTER_NAME":"EARTH","APOAPSIS":"548.183"},{"ECCENTRICITY":"0.00014270","EPOCH":"2021-09-12T21:36:34.303392","RA_OF_ASC_NODE":"213.4384","OBJECT_TYPE":"PAYLOAD","GP_ID":"184598579","APOAPSIS":"548.205","CENTER_NAME":"EARTH","SEMIMAJOR_AXIS":"6925.352","NORAD_CAT_ID":"45686","COUNTRY_CODE":"US","MEAN_MOTION_DOT":"-0.00000421","BSTAR":"-0.00000935550000","MEAN_MOTION":"15.06398864","TLE_LINE2":"2 45686  53.0535 213.4384 0001427  53.1383 306.9737 15.06398864 71872","TIME_SYSTEM":"UTC","CLASSIFICATION_TYPE":"U","REF_FRAME":"TEME","ELEMENT_SET_NO":"999","ARG_OF_PERICENTER":"53.1383","LAUNCH_DATE":"2020-06-04","MEAN_ANOMALY":"306.9737","OBJECT_ID":"2020-035AF","MEAN_MOTION_DDOT":"0.0000000000000","INCLINATION":"53.0535","DECAY_DATE":null,"EPHEMERIS_TYPE":"0","PERIAPSIS":"546.229","REV_AT_EPOCH":"7187","OBJECT_NAME":"STARLINK-1404","SITE":"AFETR","PERIOD":"95.592","FILE":"3114195","MEAN_ELEMENT_THEORY":"SGP4","TLE_LINE1":"1 45686U 20035AF  21255.90039703 -.00000421  00000-0 -93555-5 0  9996","RCS_SIZE":"LARGE"},{"DECAY_DATE":null,"EPHEMERIS_TYPE":"0","PERIAPSIS":"548.792","INCLINATION":"53.0012","OBJECT_ID":"2020-035AG","MEAN_MOTION_DDOT":"0.0000000000000","MEAN_ANOMALY":"316.7964","LAUNCH_DATE":"2020-06-04","ARG_OF_PERICENTER":"43.3129","TLE_LINE1":"1 45687U 20035AG  21255.87954318 -.00000508  00000-0 -15679-4 0  9997","MEAN_ELEMENT_THEORY":"SGP4","RCS_SIZE":"LARGE","FILE":"3114195","SITE":"AFETR","PERIOD":"95.644","REV_AT_EPOCH":"7198","OBJECT_NAME":"STARLINK-1406","CENTER_NAME":"EARTH","NORAD_CAT_ID":"45687","SEMIMAJOR_AXIS":"6927.861","APOAPSIS":"550.660","GP_ID":"184597841","ECCENTRICITY":"0.00013480","OBJECT_TYPE":"PAYLOAD","RA_OF_ASC_NODE":"203.5235","EPOCH":"2021-09-12T21:06:32.530752","REF_FRAME":"TEME","ELEMENT_SET_NO":"999","CLASSIFICATION_TYPE":"U","TIME_SYSTEM":"UTC","TLE_LINE2":"2 45687  53.0012 203.5235 0001348  43.3129 316.7964 15.05580492 71981","BSTAR":"-0.00001567900000","MEAN_MOTION":"15.05580492","MEAN_MOTION_DOT":"-0.00000508","COUNTRY_CODE":"US"},{"MEAN_MOTION":"15.06397218","BSTAR":"0.00002442700000","COUNTRY_CODE":"US","MEAN_MOTION_DOT":"0.00000082","ELEMENT_SET_NO":"999","REF_FRAME":"TEME","TIME_SYSTEM":"UTC","TLE_LINE2":"2 45688  53.0523 213.4667 0001501  71.6771 288.4381 15.06397218 71864","CLASSIFICATION_TYPE":"U","GP_ID":"184598091","EPOCH":"2021-09-12T21:25:57.569952","RA_OF_ASC_NODE":"213.4667","OBJECT_TYPE":"PAYLOAD","ECCENTRICITY":"0.00015010","SEMIMAJOR_AXIS":"6925.357","NORAD_CAT_ID":"45688","CENTER_NAME":"EARTH","APOAPSIS":"548.262","SITE":"AFETR","PERIOD":"95.592","OBJECT_NAME":"STARLINK-1408","REV_AT_EPOCH":"7186","RCS_SIZE":"LARGE","MEAN_ELEMENT_THEORY":"SGP4","TLE_LINE1":"1 45688U 20035AH  21255.89302743  .00000082  00000-0  24427-4 0  9995","FILE":"3114195","MEAN_MOTION_DDOT":"0.0000000000000","OBJECT_ID":"2020-035AH","ARG_OF_PERICENTER":"71.6771","LAUNCH_DATE":"2020-06-04","MEAN_ANOMALY":"288.4381","PERIAPSIS":"546.183","EPHEMERIS_TYPE":"0","DECAY_DATE":null,"INCLINATION":"53.0523"},{"FILE":"3114003","RCS_SIZE":"LARGE","MEAN_ELEMENT_THEORY":"SGP4","TLE_LINE1":"1 45689U 20035AJ  21255.38804987  .00001936  00000-0  14878-3 0  9994","OBJECT_NAME":"STARLINK-1413","REV_AT_EPOCH":"7170","PERIOD":"95.592","SITE":"AFETR","INCLINATION":"53.0524","PERIAPSIS":"546.376","EPHEMERIS_TYPE":"0","DECAY_DATE":null,"MEAN_ANOMALY":"302.4500","LAUNCH_DATE":"2020-06-04","ARG_OF_PERICENTER":"57.6604","MEAN_MOTION_DDOT":"0.0000000000000","OBJECT_ID":"2020-035AJ","CLASSIFICATION_TYPE":"U","TLE_LINE2":"2 45689  53.0524 215.7357 0001191  57.6604 302.4500 15.06404229 71705","TIME_SYSTEM":"UTC","ELEMENT_SET_NO":"999","REF_FRAME":"TEME","COUNTRY_CODE":"US","MEAN_MOTION_DOT":"0.00001936","MEAN_MOTION":"15.06404229","BSTAR":"0.00014878000000","APOAPSIS":"548.025","SEMIMAJOR_AXIS":"6925.336","NORAD_CAT_ID":"45689","CENTER_NAME":"EARTH","OBJECT_TYPE":"PAYLOAD","RA_OF_ASC_NODE":"215.7357","EPOCH":"2021-09-12T09:18:47.508768","ECCENTRICITY":"0.00011910","GP_ID":"184569647"}];
